$$SOE
2460728.500000000, A.D. 2025-Feb-22 00:00:00.0000, 5.782125216506776E+09, 2.664093154275551E+09, -5.148607564137099E+08,
2460735.500000000, A.D. 2025-Mar-01 00:00:00.0000, 5.780806322930501E+09, 2.666653262568850E+09, -5.148360238137894E+08,
2460742.500000000, A.D. 2025-Mar-08 00:00:00.0000, 5.779486347096570E+09, 2.669212783941730E+09, -5.148111949330947E+08,
2460749.500000000, A.D. 2025-Mar-15 00:00:00.0000, 5.778165293610921E+09, 2.671771719885253E+09, -5.147862700871834E+08,
2460756.500000000, A.D. 2025-Mar-22 00:00:00.0000, 5.776843165909089E+09, 2.674330074033119E+09, -5.147612493431517E+08,
2460763.500000000, A.D. 2025-Mar-29 00:00:00.0000, 5.775519965395128E+09, 2.676887850329537E+09, -5.147361325845013E+08,
2460770.500000000, A.D. 2025-Apr-05 00:00:00.0000, 5.774195692275131E+09, 2.679445052080807E+09, -5.147109196584238E+08,
2460777.500000000, A.D. 2025-Apr-12 00:00:00.0000, 5.772870346159342E+09, 2.682001681994835E+09, -5.146856104206574E+08,
2460784.500000000, A.D. 2025-Apr-19 00:00:00.0000, 5.771543926245713E+09, 2.684557742327491E+09, -5.146602047330528E+08,
2460791.500000000, A.D. 2025-Apr-26 00:00:00.0000, 5.770216431356545E+09, 2.687113234933128E+09, -5.146347024556270E+08,
2460798.500000000, A.D. 2025-May-03 00:00:00.0000, 5.768887859941874E+09, 2.689668161238820E+09, -5.146091034421792E+08,
2460805.500000000, A.D. 2025-May-10 00:00:00.0000, 5.767558210078232E+09, 2.692222522151323E+09, -5.145834075415745E+08,
2460812.500000000, A.D. 2025-May-17 00:00:00.0000, 5.766227479499465E+09, 2.694776317856069E+09, -5.145576146115414E+08,
2460819.500000000, A.D. 2025-May-24 00:00:00.0000, 5.764895665833584E+09, 2.697329547453992E+09, -5.145317245654815E+08,
2460826.500000000, A.D. 2025-May-31 00:00:00.0000, 5.763562767463367E+09, 2.699882208747430E+09, -5.145057374652512E+08,
2460833.500000000, A.D. 2025-Jun-07 00:00:00.0000, 5.762228784609810E+09, 2.702434299380104E+09, -5.144796535246967E+08,
2460840.500000000, A.D. 2025-Jun-14 00:00:00.0000, 5.760893718273864E+09, 2.704985818664532E+09, -5.144534728615645E+08,
2460847.500000000, A.D. 2025-Jun-21 00:00:00.0000, 5.759557568253220E+09, 2.707536766825698E+09, -5.144271953767029E+08,
2460854.500000000, A.D. 2025-Jun-28 00:00:00.0000, 5.758220333362324E+09, 2.710087143425839E+09, -5.144008209032325E+08,
2460861.500000000, A.D. 2025-Jul-05 00:00:00.0000, 5.756882012338956E+09, 2.712636947126946E+09, -5.143743493102926E+08,
2460868.500000000, A.D. 2025-Jul-12 00:00:00.0000, 5.755542604246291E+09, 2.715186175985845E+09, -5.143477805178837E+08,
2460875.500000000, A.D. 2025-Jul-19 00:00:00.0000, 5.754202108560086E+09, 2.717734827706891E+09, -5.143211144871141E+08,
2460882.500000000, A.D. 2025-Jul-26 00:00:00.0000, 5.752860525150880E+09, 2.720282899795868E+09, -5.142943512096504E+08,
2460889.500000000, A.D. 2025-Aug-02 00:00:00.0000, 5.751517854226610E+09, 2.722830389636925E+09, -5.142674907004913E+08,
2460896.500000000, A.D. 2025-Aug-09 00:00:00.0000, 5.750174096259061E+09, 2.725377294478110E+09, -5.142405329972543E+08,
2460903.500000000, A.D. 2025-Aug-16 00:00:00.0000, 5.748829251971081E+09, 2.727923611262575E+09, -5.142134781780429E+08,
2460910.500000000, A.D. 2025-Aug-23 00:00:00.0000, 5.747483322677214E+09, 2.730469336322185E+09, -5.141863264231602E+08,
2460917.500000000, A.D. 2025-Aug-30 00:00:00.0000, 5.746136311306639E+09, 2.733014465647838E+09, -5.141590780922663E+08,
2460924.500000000, A.D. 2025-Sep-06 00:00:00.0000, 5.744788222690353E+09, 2.735558996736945E+09, -5.141317336049073E+08,
2460931.500000000, A.D. 2025-Sep-13 00:00:00.0000, 5.743439061441780E+09, 2.738102929535338E+09, -5.141042931738291E+08,
2460938.500000000, A.D. 2025-Sep-20 00:00:00.0000, 5.742088830704082E+09, 2.740646264829367E+09, -5.140767568254290E+08,
2460945.500000000, A.D. 2025-Sep-27 00:00:00.0000, 5.740737532822697E+09, 2.743189003199885E+09, -5.140491245499440E+08,
2460952.500000000, A.D. 2025-Oct-04 00:00:00.0000, 5.739385169926409E+09, 2.745731145077542E+09, -5.140213963521483E+08,
2460959.500000000, A.D. 2025-Oct-11 00:00:00.0000, 5.738031744043329E+09, 2.748272690956568E+09, -5.139935722452585E+08,
2460966.500000000, A.D. 2025-Oct-18 00:00:00.0000, 5.736677257035402E+09, 2.750813641492893E+09, -5.139656522364470E+08,
2460973.500000000, A.D. 2025-Oct-25 00:00:00.0000, 5.735321710491024E+09, 2.753353997497936E+09, -5.139376363158892E+08,
2460980.500000000, A.D. 2025-Nov-01 00:00:00.0000, 5.733965105615118E+09, 2.755893759843960E+09, -5.139095244518079E+08,
2460987.500000000, A.D. 2025-Nov-08 00:00:00.0000, 5.732607443151238E+09, 2.758432929250020E+09, -5.138813165973951E+08,
2460994.500000000, A.D. 2025-Nov-15 00:00:00.0000, 5.731248723483462E+09, 2.760971505890435E+09, -5.138530127281672E+08,
2461001.500000000, A.D. 2025-Nov-22 00:00:00.0000, 5.729888947320733E+09, 2.763509489046335E+09, -5.138246129289051E+08,
2461008.500000000, A.D. 2025-Nov-29 00:00:00.0000, 5.728528116810372E+09, 2.766046877935698E+09, -5.137961174235909E+08,
2461015.500000000, A.D. 2025-Dec-06 00:00:00.0000, 5.727166234803301E+09, 2.768583673586297E+09, -5.137675263507738E+08,
2461022.500000000, A.D. 2025-Dec-13 00:00:00.0000, 5.725803302704565E+09, 2.771119878381549E+09, -5.137388395997237E+08,
2461029.500000000, A.D. 2025-Dec-20 00:00:00.0000, 5.724439320402352E+09, 2.773655494302801E+09, -5.137100569442860E+08,
2461036.500000000, A.D. 2025-Dec-27 00:00:00.0000, 5.723074287201637E+09, 2.776190522459771E+09, -5.136811781642357E+08,
2461043.500000000, A.D. 2026-Jan-03 00:00:00.0000, 5.721708202303273E+09, 2.778724963294148E+09, -5.136522030706270E+08,
2461050.500000000, A.D. 2026-Jan-10 00:00:00.0000, 5.720341064938263E+09, 2.781258816778125E+09, -5.136231315006473E+08,
2461057.500000000, A.D. 2026-Jan-17 00:00:00.0000, 5.718972874389790E+09, 2.783792082517109E+09, -5.135939633107277E+08,
2461064.500000000, A.D. 2026-Jan-24 00:00:00.0000, 5.717603629980942E+09, 2.786324759780172E+09, -5.135646983731126E+08,
2461071.500000000, A.D. 2026-Jan-31 00:00:00.0000, 5.716233331051584E+09, 2.788856847451749E+09, -5.135353365785336E+08,
2461078.500000000, A.D. 2026-Feb-07 00:00:00.0000, 5.714861976985891E+09, 2.791388343848176E+09, -5.135058778552147E+08,
2461085.500000000, A.D. 2026-Feb-14 00:00:00.0000, 5.713489567543619E+09, 2.793919246384654E+09, -5.134763222285516E+08,
2461092.500000000, A.D. 2026-Feb-21 00:00:00.0000, 5.712116103882644E+09, 2.796449551670447E+09, -5.134466699097558E+08,
2461099.500000000, A.D. 2026-Feb-28 00:00:00.0000, 5.710741589187954E+09, 2.798979257186433E+09, -5.134169212196015E+08,
2461106.500000000, A.D. 2026-Mar-07 00:00:00.0000, 5.709366026848551E+09, 2.801508362595352E+09, -5.133870763177514E+08,
2461113.500000000, A.D. 2026-Mar-14 00:00:00.0000, 5.707989418957926E+09, 2.804036868352206E+09, -5.133571351827879E+08,
2461120.500000000, A.D. 2026-Mar-21 00:00:00.0000, 5.706611766921058E+09, 2.806564774512840E+09, -5.133270977695553E+08,
2461127.500000000, A.D. 2026-Mar-28 00:00:00.0000, 5.705233072158491E+09, 2.809092080769402E+09, -5.132969640753084E+08,
2461134.500000000, A.D. 2026-Apr-04 00:00:00.0000, 5.703853336303771E+09, 2.811618786747033E+09, -5.132667341380697E+08,
2461141.500000000, A.D. 2026-Apr-11 00:00:00.0000, 5.702472561168193E+09, 2.814144892201828E+09, -5.132364080215374E+08,
2461148.500000000, A.D. 2026-Apr-18 00:00:00.0000, 5.701090748632248E+09, 2.816670397113358E+09, -5.132059858015147E+08,
2461155.500000000, A.D. 2026-Apr-25 00:00:00.0000, 5.699707900509826E+09, 2.819195301686426E+09, -5.131754675566444E+08,
2461162.500000000, A.D. 2026-May-02 00:00:00.0000, 5.698324018416206E+09, 2.821719606232468E+09, -5.131448533685058E+08,
2461169.500000000, A.D. 2026-May-09 00:00:00.0000, 5.696939103764832E+09, 2.824243310864342E+09, -5.131141433477407E+08,
2461176.500000000, A.D. 2026-May-16 00:00:00.0000, 5.695553158271174E+09, 2.826766415142897E+09, -5.130833377094452E+08,
2461183.500000000, A.D. 2026-May-23 00:00:00.0000, 5.694166185015811E+09, 2.829288918697705E+09, -5.130524368189541E+08,
2461190.500000000, A.D. 2026-May-30 00:00:00.0000, 5.692778187988480E+09, 2.831810823141575E+09, -5.130214409912719E+08,
2461197.500000000, A.D. 2026-Jun-06 00:00:00.0000, 5.691389169795912E+09, 2.834332132005286E+09, -5.129903502826297E+08,
2461204.500000000, A.D. 2026-Jun-13 00:00:00.0000, 5.689999131199442E+09, 2.836852848891519E+09, -5.129591645942907E+08,
2461211.500000000, A.D. 2026-Jun-20 00:00:00.0000, 5.688608071981398E+09, 2.839372976774130E+09, -5.129278838037140E+08,
2461218.500000000, A.D. 2026-Jun-27 00:00:00.0000, 5.687215991441895E+09, 2.841892518102924E+09, -5.128965077953279E+08,
2461225.500000000, A.D. 2026-Jul-04 00:00:00.0000, 5.685822888525941E+09, 2.844411474939090E+09, -5.128650364545083E+08,
2461232.500000000, A.D. 2026-Jul-11 00:00:00.0000, 5.684428761834743E+09, 2.846929848989417E+09, -5.128334696591057E+08,
2461239.500000000, A.D. 2026-Jul-18 00:00:00.0000, 5.683033609613940E+09, 2.849447641565121E+09, -5.128018072751853E+08,
2461246.500000000, A.D. 2026-Jul-25 00:00:00.0000, 5.681637429743185E+09, 2.851964853468019E+09, -5.127700491592335E+08,
2461253.500000000, A.D. 2026-Aug-01 00:00:00.0000, 5.680240219775121E+09, 2.854481484756048E+09, -5.127381951753628E+08,
2461260.500000000, A.D. 2026-Aug-08 00:00:00.0000, 5.678841977238633E+09, 2.856997534352306E+09, -5.127062452503035E+08,
2461267.500000000, A.D. 2026-Aug-15 00:00:00.0000, 5.677442700621302E+09, 2.859512999948129E+09, -5.126741994675435E+08,
2461274.500000000, A.D. 2026-Aug-22 00:00:00.0000, 5.676042390269932E+09, 2.862027879421642E+09, -5.126420580310533E+08,
2461281.500000000, A.D. 2026-Aug-29 00:00:00.0000, 5.674641046919940E+09, 2.864542172399235E+09, -5.126098210008659E+08,
2461288.500000000, A.D. 2026-Sep-05 00:00:00.0000, 5.673238669987108E+09, 2.867055879091959E+09, -5.125774882305875E+08,
2461295.500000000, A.D. 2026-Sep-12 00:00:00.0000, 5.671835258076563E+09, 2.869568998902655E+09, -5.125450595280305E+08,
$$EOE